171P/Spahr,e,21.9507,101.7014,347.0895,3.551927,0.1472340,0.50271133,325.5394,02/03.0/2025,2000,g 13.5,4.0
# From MPC181190
172P/Yeung,e,11.2239,30.8820,208.9224,4.222618,0.1135877,0.20474605,329.0259,02/03.0/2025,2000,g 13.0,4.0
# From MPEC 2023-N01
173P/Mueller,e,16.4931,100.3468,29.2510,5.714531,0.0721495,0.26231224,82.5051,02/03.0/2025,2000,g  7.5,4.0
# From MPC 92985
174P/Echeclus,e,4.3416,173.3267,163.4502,10.75914,0.0279279,0.45511923,99.8547,02/03.0/2025,2000,g  9.4,2.0
# From MPC114608
175P/Hergenrother,e,4.9232,109.8584,74.8387,3.687089,0.1392127,0.37686803,279.6730,02/03.0/2025,2000,g 14.0,4.0
# From MPC 89015
176P/LINEAR,e,0.2312,345.6343,34.4706,3.195016,0.1725816,0.19196816,139.0997,02/03.0/2025,2000,g 15.1,2.0
# From MPEC 2020-L06
177P/Barnard,e,31.0085,271.8668,60.7423,24.51546,0.0081198,0.95435745,54.6467,02/03.0/2025,2000,g 15.0,4.0
# From MPEC 2024-R10
178P/Hug-Bell,e,11.0922,102.7857,297.9594,3.632738,0.1423485,0.48238983,236.4040,02/03.0/2025,2000,g 13.5,4.0
# From MPEC 2024-EF7
179P/Jedicke,e,19.8905,115.5096,297.1924,5.936737,0.0681369,0.30557920,66.6447,02/03.0/2025,2000,g  2.5,8.0
# From MPEC 2024-F34
180P/NEAT,e,16.8624,84.5602,94.6091,3.867891,0.1295665,0.35373775,74.1009,02/03.0/2025,2000,g 11.0,4.0
# From MPC 89012
181P/Shoemaker-Levy,e,17.4778,35.4338,336.2973,3.878794,0.1290206,0.69995917,144.7000,02/03.0/2025,2000,g 11.5,4.0
# From MPEC 2024-UQ8
182P/LONEOS,e,16.2319,72.4614,54.1965,2.948928,0.1946291,0.66386286,194.1034,02/03.0/2025,2000,g 18.0,4.0
# From MPEC 2024-VJ2
183P/Korlevic-Juric,e,18.7433,3.6503,163.2177,4.702864,0.0966408,0.10256761,267.1771,02/03.0/2025,2000,g 12.5,2.0
# From MPEC 2020-W26
184P/Lovas,e,4.5709,173.2713,186.5658,3.800309,0.1330380,0.54998124,207.7149,02/03.0/2025,2000,g 13.5,4.0
# From MPEC 2024-F91
185P/Petriew,e,14.0122,214.1198,181.9165,3.099435,0.1806260,0.69952781,103.1646,02/03.0/2025,2000,g 15.0,4.0
# From MPEC 2022-X67
186P/Garradd,e,28.6384,325.9609,268.6888,4.853773,0.0921690,0.12402308,206.4041,02/03.0/2025,2000,g  7.5,4.0
# From MPEC 2020-SI8
187P/LINEAR,e,13.6631,109.8418,131.4149,4.553768,0.1014256,0.15550576,248.9223,02/03.0/2025,2000,g  9.0,4.0
# From MPEC 2023-J29
188P/LINEAR-Mueller,e,10.5242,358.9190,26.8146,4.365870,0.1080433,0.41679066,313.0859,02/03.0/2025,2000,g 11.5,4.0
# From MPEC 2022-QD9
189P/NEAT,e,20.1126,281.6776,16.1995,2.941030,0.1954136,0.59001646,173.7162,02/03.0/2025,2000,g 19.0,4.0
# From MPC181190
190P/Mueller,e,2.1746,335.4977,50.5285,4.227845,0.1133771,0.52233052,4.6330,02/03.0/2025,2000,g 13.0,4.0
# From MPEC 2024-TD8
191P/McNaught,e,8.8394,98.1798,284.2704,3.640439,0.1418971,0.38531001,200.8717,02/03.0/2025,2000,g 13.0,4.0
# From MPC181190
192P/Shoemaker-Levy,e,24.5840,51.6019,313.0672,6.462741,0.0599900,0.77348991,15.2655,02/03.0/2025,2000,g 15.0,4.0
# From MPEC 2024-R10
193P/LINEAR-NEAT,e,10.6802,335.1874,8.1292,3.579171,0.1455561,0.39272803,183.2295,02/03.0/2025,2000,g 14.0,4.0
# From MPEC 2024-GJ3
194P/LINEAR,e,11.8041,349.5183,128.5962,4.121946,0.1177743,0.56336416,42.9536,02/03.0/2025,2000,g 16.0,4.0
# From MPC181190
195P/Hill,e,36.4196,243.1059,250.5255,6.450578,0.0601598,0.31155790,348.9894,02/03.0/2025,2000,g  8.5,4.0
# From MPEC 2024-GJ3
196P/Tichy,e,19.2975,24.1218,12.1280,3.805803,0.1327501,0.42768377,109.8771,02/03.0/2025,2000,g 13.5,4.0
# From MPEC 2023-UR6
197P/LINEAR,e,25.4696,66.2417,189.8617,2.903056,0.1992604,0.62177517,157.1978,02/03.0/2025,2000,g 16.5,2.0
# From MPEC 2024-VJ2
198P/ODAS,e,1.3400,358.4692,69.0431,3.592031,0.1447751,0.44463525,324.3706,02/03.0/2025,2000,g 12.5,4.0
# From MPEC 2024-Q20
199P/Shoemaker,e,24.9388,92.3466,191.7680,5.875002,0.0692137,0.50454810,37.7595,02/03.0/2025,2000,g 10.0,4.0
# From MPEC 2022-C56
200P/Larsen,e,12.0961,234.8061,134.3936,4.952342,0.0894310,0.33142077,180.2643,02/03.0/2025,2000,g  9.0,4.0
# From MPC 93588
201P/LONEOS,e,5.7380,41.5315,19.7920,3.354649,0.1604107,0.63757845,216.1104,02/03.0/2025,2000,g 14.0,4.0
# From MPEC 2023-XP6
202P/Scotti,e,2.1418,177.3009,274.4940,4.099695,0.1187345,0.25122046,31.0707,02/03.0/2025,2000,g 13.5,4.0
# From MPC181191
203P/Korlevic,e,2.9758,290.2236,154.9136,4.668357,0.0977143,0.31641893,175.2833,02/03.0/2025,2000,g 14.5,2.0
# From MPEC 2024-JU4
204P/LINEAR-NEAT,e,6.5976,108.4744,356.7154,3.583948,0.1452652,0.48828716,117.4918,02/03.0/2025,2000,g 14.0,4.0
# From MPEC 2023_O39
205P/Giacobini,e,15.3014,179.6214,154.1674,3.543029,0.1477890,0.56724336,165.1023,02/03.0/2025,2000,g 13.0,4.0
# From MPC 75725
206P/Barnard-Boattini,e,33.6231,202.3465,189.5731,3.491257,0.1510885,0.55124669,216.1845,02/03.0/2025,2000,g 19.0,4.0
# From MPEC 2024-NE4
207P/NEAT,e,10.1997,198.1482,273.0110,3.885491,0.1286871,0.75851260,47.3763,02/03.0/2025,2000,g 16.0,4.0
# From MPC181191
208P/McMillan,e,4.4123,36.3357,310.7141,4.038728,0.1214331,0.37386928,19.7896,02/03.0/2025,2000,g 12.5,4.0
# From MPEC 2024-TD8
209P/LINEAR,e,21.2824,62.7686,152.4846,2.958106,0.1937240,0.67401406,39.4244,02/03.0/2025,2000,g 17.0,2.0
# From MPC105242
210P/Christensen,e,10.2821,93.8252,345.9122,3.161167,0.1753610,0.83408086,308.6697,02/03.0/2025,2000,g 13.5,4.0
# From MPEC 2024-JU4
211P/Hill,e,18.9236,117.1020,4.3361,3.548809,0.1474280,0.34444354,125.6057,02/03.0/2025,2000,g 12.5,4.0
# From MPEC 2024-GJ3
212P/NEAT,e,22.1489,97.9723,14.0450,3.902193,0.1278618,0.58673469,36.2962,02/03.0/2025,2000,g 17.0,2.0
# From MPC181191
213P/VanNess,e,10.3905,311.1230,6.1433,3.352488,0.1605659,0.40887887,72.0226,02/03.0/2025,2000,g 10.5,4.0
# From MPC 76570
213P-B/Van Ness,e,10.3635,5.5981,311.6667,3.352566,0.1605603,0.40903917,71.8785,02/03.0/2025,2000,g 17.0,4.0
# From MPC 76570
213P-C/Van Ness,e,10.3608,5.5766,311.6713,3.351940,0.1606052,0.40888680,72.1653,02/03.0/2025,2000,g 17.5,4.0
# From MPC 92986
214P/LINEAR,e,15.1907,348.2132,190.1218,3.616766,0.1432925,0.48613998,123.3414,02/03.0/2025,2000,g 13.0,4.0
# From MPEC 2024-F91
215P/NEAT,e,10.5765,56.6751,262.3104,4.335253,0.1091899,0.16500628,208.1485,02/03.0/2025,2000,g 11.0,4.0
# From MPEC 2024-N80
216P/LINEAR,e,9.0618,359.7889,151.7533,3.859793,0.1299745,0.44894366,51.0877,02/03.0/2025,2000,g 13.0,4.0
# From MPEC 2024-LE0
217P/LINEAR,e,12.8654,125.3716,247.0349,3.944603,0.1258054,0.68910130,346.0429,02/03.0/2025,2000,g 12.0,4.0
# From MPEC 2022-K19
218P/LINEAR,e,2.7247,174.8051,61.1901,3.065461,0.1836371,0.63085934,287.6856,02/03.0/2025,2000,g 16.0,4.0
# From MPC181191
219P/LINEAR,e,11.5346,230.9500,107.7841,3.651874,0.1412311,0.35493783,50.0794,02/03.0/2025,2000,g 11.0,4.0
# From MPEC 2024-A43
220P/McNaught,e,8.1213,150.0951,180.5957,3.119834,0.1788574,0.50044916,271.2611,02/03.0/2025,2000,g 15.0,4.0
# From MPEC 2022-UY9
221P/LINEAR,e,11.2718,228.7692,39.7532,3.402456,0.1570418,0.51441336,177.3060,02/03.0/2025,2000,g 14.5,4.0
# From MPC 92277
222P/LINEAR,e,5.0965,6.7653,346.2819,2.897043,0.1998810,0.71475753,53.1897,02/03.0/2025,2000,g 20.0,4.0
# From MPEC 2023-A50
223P/Skiff,e,27.0067,346.7149,37.9777,4.158115,0.1162410,0.41635810,255.1905,02/03.0/2025,2000,g 12.0,4.0
# From MPEC 2024-L77
224P/LINEAR-NEAT,e,13.3033,40.0410,16.7999,3.446720,0.1540263,0.40570312,131.9692,02/03.0/2025,2000,g 15.5,4.0
# From MPEC 2024-F91
225P/LINEAR,e,21.3635,14.2075,3.9074,3.647470,0.1414870,0.63826223,77.1189,02/03.0/2025,2000,g 18.0,4.0
# From MPEC 2024-MB8
226P/Pigott-LINEAR-Kowalski,e,44.0453,54.0108,341.0313,3.765423,0.1348911,0.52894854,54.4813,02/03.0/2025,2000,g 12.5,4.0
# From MPC181191
227P/Catalina-LINEAR,e,7.5078,36.8071,105.5811,3.437242,0.1546639,0.52764907,51.3035,02/03.0/2025,2000,g 16.5,2.0
# From MPEC 2022-HC2
228P/LINEAR,e,7.9148,30.9605,114.7621,4.162869,0.1160419,0.17724547,207.9689,02/03.0/2025,2000,g 14.1,4.0
# From MPC181191
229P/Gibbs,e,26.0973,157.8839,224.2098,3.922923,0.1268497,0.37792038,356.0976,02/03.0/2025,2000,g 13.0,4.0
# From MPEC 2024-P23
230P/LINEAR,e,15.4715,106.9293,313.5702,3.454798,0.1534864,0.54556461,161.3600,02/03.0/2025,2000,g 13.0,4.0
# From MPEC 2023-SQ0
231P/LINEAR-NEAT,e,12.2717,132.8062,43.8385,4.059164,0.1205172,0.24016686,249.9364,02/03.0/2025,2000,g 14.5,2.0
# From MPC112394
232P/Hill,e,14.6433,56.0194,53.2689,4.470599,0.1042691,0.33603281,221.7898,02/03.0/2025,2000,g 11.5,4.0
# From MPEC 2021-N06
233P/La Sagra,e,11.2888,74.8992,27.0187,3.026638,0.1871816,0.41293714,296.5190,02/03.0/2025,2000,g 15.0,4.0
# From MPC181191
234P/LINEAR,e,11.5344,179.5671,357.4268,3.797334,0.1331944,0.25714912,13.6383,02/03.0/2025,2000,g 12.0,4.0
# From MPC181191
235P/LINEAR,e,9.8132,200.2149,352.0613,3.449753,0.1538233,0.42647228,310.4055,02/03.0/2025,2000,g 12.0,4.0
# From MPEC 2024-P23
236P/LINEAR,e,16.3557,245.5691,119.4182,3.724297,0.1371316,0.50914479,359.8887,02/03.0/2025,2000,g 14.0,4.0
# From MPC181191
237P/LINEAR,e,14.0162,245.3542,25.4722,3.515110,0.1495532,0.43325362,94.2619,02/03.0/2025,2000,g 14.5,2.0
# From MPEC 2024-L77
238P/Read,e,1.2638,51.6454,324.2727,3.167103,0.1748682,0.25077820,170.2914,02/03.0/2025,2000,g 14.5,4.0
# From MPEC 2021-F20
239P/LINEAR,e,11.3077,255.9454,220.3641,4.464312,0.1044894,0.63142151,231.4103,02/03.0/2025,2000,g 17.5,2.0
# From MPC181191
240P/NEAT,e,23.5371,74.9156,352.0612,3.860377,0.1299450,0.45035314,318.4221,02/03.0/2025,2000,g 11.0,4.0
# From MPEC 2022-J42
241P/LINEAR,e,21.0946,305.4279,111.5904,4.926933,0.0901237,0.61028933,116.0541,02/03.0/2025,2000,g 13.5,4.0
# From MPC181192
242P/Spahr,e,32.4271,180.2884,244.9219,5.537183,0.0756434,0.28273824,3.1604,02/03.0/2025,2000,g  8.0,4.0
# From MPEC 2022-K19
243P/NEAT,e,7.6442,87.6481,283.6965,3.827324,0.1316319,0.36039258,308.9930,02/03.0/2025,2000,g 12.5,4.0
# From MPEC 2024-L77
244P/Scotti,e,2.2579,354.0095,93.4404,4.903446,0.0907720,0.19989057,73.1863,02/03.0/2025,2000,g  9.0,4.0
# From MPEC 2022-CN4
245P/WISE,e,21.1720,316.8866,316.5135,4.051919,0.1208406,0.45572294,309.0961,02/03.0/2025,2000,g 14.0,4.0
# From MPC181192
246P/NEAT,e,17.6672,74.2500,185.7023,4.259563,0.1121131,0.23107711,169.0114,02/03.0/2025,2000,g 10.5,4.0
# From MPEC 2021-F20
